[{"OBJECT_NAME":"STARLINK-5866","OBJECT_ID":"2023-094R","EPOCH":"2026-03-09T22:00:01.999584","MEAN_MOTION":15.13650488,"ECCENTRICITY":0.00017672,"INCLINATION":43.0008,"RA_OF_ASC_NODE":28.3845,"ARG_OF_PERICENTER":256.8275,"MEAN_ANOMALY":60.3723,"EPHEMERIS_TYPE":0,"CLASSIFICATION_TYPE":"U","NORAD_CAT_ID":57233,"ELEMENT_SET_NO":999,"REV_AT_EPOCH":577,"BSTAR":0.0044796567,"MEAN_MOTION_DOT":0.00082702,"MEAN_MOTION_DDOT":0},{"OBJECT_NAME":"XRISM","OBJECT_ID":"2023-137A","EPOCH":"2026-03-09T21:42:52.202304","MEAN_MOTION":15.11505182,"ECCENTRICITY":0.00080041,"INCLINATION":31.0015,"RA_OF_ASC_NODE":282.2731,"ARG_OF_PERICENTER":40.7626,"MEAN_ANOMALY":319.361,"EPHEMERIS_TYPE":0,"CLASSIFICATION_TYPE":"U","NORAD_CAT_ID":57800,"ELEMENT_SET_NO":999,"REV_AT_EPOCH":13782,"BSTAR":0.00036815988,"MEAN_MOTION_DOT":6.492e-5,"MEAN_MOTION_DDOT":0}]
